{
  "type": "FeatureCollection",
  "features": [
    {
      "type": "Feature",
      "properties": {
        "norad_id": 66575,
        "name": "STARLINK-35810",
        "group": "last-30-days",
        "lat": 42.24016441021093,
        "lon": -112.96094901873879,
        "alt_km": 350.2569803607894,
        "timestamp": "2025-12-04T10:51:48.876924+00:00",
        "meta_object_name": "STARLINK-35810",
        "meta_object_id": "2025-268U",
        "meta_epoch": "2025-12-04T04:00:03.000096",
        "meta_mean_motion": 15.72307773,
        "meta_eccentricity": 0.0001593,
        "meta_inclination": 42.9989,
        "meta_ra_of_asc_node": 171.7372,
        "meta_arg_of_pericenter": 265.0969,
        "meta_mean_anomaly": 355.4437,
        "meta_ephemeris_type": 0,
        "meta_classification_type": "U",
        "meta_norad_cat_id": 66575,
        "meta_element_set_no": 999,
        "meta_rev_at_epoch": 329,
        "meta_bstar": -0.015856,
        "meta_mean_motion_dot": -0.0188285,
        "meta_mean_motion_ddot": 0,
        "tle_line1": "1 66575U 25268U   25338.16670139 -.01882850  00000+0 -15856-1 0  9995",
        "tle_line2": "2 66575  42.9989 171.7372 0001593 265.0969 355.4437 15.72307773  3292"
      },
      "geometry": {
        "type": "Point",
        "coordinates": [
          -112.96094901873879,
          42.24016441021093
        ]
      }
    },
    {
      "type": "Feature",
      "properties": {
        "norad_id": 66576,
        "name": "STARLINK-35814",
        "group": "last-30-days",
        "lat": 42.50519551316203,
        "lon": -110.3924814197896,
        "alt_km": 350.0988142062906,
        "timestamp": "2025-12-04T10:51:48.876934+00:00",
        "meta_object_name": "STARLINK-35814",
        "meta_object_id": "2025-268V",
        "meta_epoch": "2025-12-04T04:00:03.000096",
        "meta_mean_motion": 15.72311446,
        "meta_eccentricity": 0.0001429,
        "meta_inclination": 42.9989,
        "meta_ra_of_asc_node": 171.7323,
        "meta_arg_of_pericenter": 267.2114,
        "meta_mean_anomaly": 355.2437,
        "meta_ephemeris_type": 0,
        "meta_classification_type": "U",
        "meta_norad_cat_id": 66576,
        "meta_element_set_no": 999,
        "meta_rev_at_epoch": 329,
        "meta_bstar": -0.015893,
        "meta_mean_motion_dot": -0.01925062,
        "meta_mean_motion_ddot": 0,
        "tle_line1": "1 66576U 25268V   25338.16670139 -.01925062  00000+0 -15893-1 0  9990",
        "tle_line2": "2 66576  42.9989 171.7323 0001429 267.2114 355.2437 15.72311446  3293"
      },
      "geometry": {
        "type": "Point",
        "coordinates": [
          -110.3924814197896,
          42.50519551316203
        ]
      }
    },
    {
      "type": "Feature",
      "properties": {
        "norad_id": 66577,
        "name": "STARLINK-35815",
        "group": "last-30-days",
        "lat": 42.71195441660267,
        "lon": -107.80628369194432,
        "alt_km": 350.0395733237856,
        "timestamp": "2025-12-04T10:51:48.876944+00:00",
        "meta_object_name": "STARLINK-35815",
        "meta_object_id": "2025-268W",
        "meta_epoch": "2025-12-04T04:00:03.000096",
        "meta_mean_motion": 15.72314345,
        "meta_eccentricity": 0.0001377,
        "meta_inclination": 42.9988,
        "meta_ra_of_asc_node": 171.7278,
        "meta_arg_of_pericenter": 264.6522,
        "meta_mean_anomaly": 359.7177,
        "meta_ephemeris_type": 0,
        "meta_classification_type": "U",
        "meta_norad_cat_id": 66577,
        "meta_element_set_no": 999,
        "meta_rev_at_epoch": 329,
        "meta_bstar": -0.015916,
        "meta_mean_motion_dot": -0.01927704,
        "meta_mean_motion_ddot": 0,
        "tle_line1": "1 66577U 25268W   25338.16670139 -.01927704  00000+0 -15916-1 0  9992",
        "tle_line2": "2 66577  42.9988 171.7278 0001377 264.6522 359.7177 15.72314345  3299"
      },
      "geometry": {
        "type": "Point",
        "coordinates": [
          -107.80628369194432,
          42.71195441660267
        ]
      }
    },
    {
      "type": "Feature",
      "properties": {
        "norad_id": 66578,
        "name": "STARLINK-35743",
        "group": "last-30-days",
        "lat": 42.86027568511777,
        "lon": -105.20362706794494,
        "alt_km": 350.0637164410273,
        "timestamp": "2025-12-04T10:51:48.876956+00:00",
        "meta_object_name": "STARLINK-35743",
        "meta_object_id": "2025-268X",
        "meta_epoch": "2025-12-04T04:00:03.000096",
        "meta_mean_motion": 15.72312292,
        "meta_eccentricity": 0.0001439,
        "meta_inclination": 42.9989,
        "meta_ra_of_asc_node": 171.7227,
        "meta_arg_of_pericenter": 264.541,
        "meta_mean_anomaly": 1.7478,
        "meta_ephemeris_type": 0,
        "meta_classification_type": "U",
        "meta_norad_cat_id": 66578,
        "meta_element_set_no": 999,
        "meta_rev_at_epoch": 329,
        "meta_bstar": -0.015898,
        "meta_mean_motion_dot": -0.0192565,
        "meta_mean_motion_ddot": 0,
        "tle_line1": "1 66578U 25268X   25338.16670139 -.01925650  00000+0 -15898-1 0  9990",
        "tle_line2": "2 66578  42.9989 171.7227 0001439 264.5410   1.7478 15.72312292  3296"
      },
      "geometry": {
        "type": "Point",
        "coordinates": [
          -105.20362706794494,
          42.86027568511777
        ]
      }
    },
    {
      "type": "Feature",
      "properties": {
        "norad_id": 66579,
        "name": "STARLINK-35868",
        "group": "last-30-days",
        "lat": 42.94894694872017,
        "lon": -102.59167487568926,
        "alt_km": 350.22070138195613,
        "timestamp": "2025-12-04T10:51:48.876966+00:00",
        "meta_object_name": "STARLINK-35868",
        "meta_object_id": "2025-268Y",
        "meta_epoch": "2025-12-04T04:00:03.000096",
        "meta_mean_motion": 15.7230747,
        "meta_eccentricity": 0.0001683,
        "meta_inclination": 42.9988,
        "meta_ra_of_asc_node": 171.718,
        "meta_arg_of_pericenter": 265.9172,
        "meta_mean_anomaly": 2.2906,
        "meta_ephemeris_type": 0,
        "meta_classification_type": "U",
        "meta_norad_cat_id": 66579,
        "meta_element_set_no": 999,
        "meta_rev_at_epoch": 329,
        "meta_bstar": -0.015845,
        "meta_mean_motion_dot": -0.01881735,
        "meta_mean_motion_ddot": 0,
        "tle_line1": "1 66579U 25268Y   25338.16670139 -.01881735  00000+0 -15845-1 0  9998",
        "tle_line2": "2 66579  42.9988 171.7180 0001683 265.9172   2.2906 15.72307470  3299"
      },
      "geometry": {
        "type": "Point",
        "coordinates": [
          -102.59167487568926,
          42.94894694872017
        ]
      }
    },
    {
      "type": "Feature",
      "properties": {
        "norad_id": 66580,
        "name": "STARLINK-35872",
        "group": "last-30-days",
        "lat": 42.97798537995028,
        "lon": -99.96583873340502,
        "alt_km": 350.1716227539646,
        "timestamp": "2025-12-04T10:51:48.876976+00:00",
        "meta_object_name": "STARLINK-35872",
        "meta_object_id": "2025-268Z",
        "meta_epoch": "2025-12-04T04:00:03.000096",
        "meta_mean_motion": 15.72316766,
        "meta_eccentricity": 0.00016,
        "meta_inclination": 42.9988,
        "meta_ra_of_asc_node": 171.7136,
        "meta_arg_of_pericenter": 265.4959,
        "meta_mean_anomaly": 4.6323,
        "meta_ephemeris_type": 0,
        "meta_classification_type": "U",
        "meta_norad_cat_id": 66580,
        "meta_element_set_no": 999,
        "meta_rev_at_epoch": 329,
        "meta_bstar": -0.016017,
        "meta_mean_motion_dot": -0.01938849,
        "meta_mean_motion_ddot": 0,
        "tle_line1": "1 66580U 25268Z   25338.16670139 -.01938849  00000+0 -16017-1 0  9991",
        "tle_line2": "2 66580  42.9988 171.7136 0001600 265.4959   4.6323 15.72316766  3296"
      },
      "geometry": {
        "type": "Point",
        "coordinates": [
          -99.96583873340502,
          42.97798537995028
        ]
      }
    },
    {
      "type": "Feature",
      "properties": {
        "norad_id": 66581,
        "name": "STARLINK-35744",
        "group": "last-30-days",
        "lat": 42.947247545318305,
        "lon": -97.3567809788982,
        "alt_km": 350.2078099325381,
        "timestamp": "2025-12-04T10:51:48.876986+00:00",
        "meta_object_name": "STARLINK-35744",
        "meta_object_id": "2025-268AA",
        "meta_epoch": "2025-12-04T04:00:03.000096",
        "meta_mean_motion": 15.72306757,
        "meta_eccentricity": 0.0001665,
        "meta_inclination": 42.9989,
        "meta_ra_of_asc_node": 171.7081,
        "meta_arg_of_pericenter": 266.3515,
        "meta_mean_anomaly": 5.6912,
        "meta_ephemeris_type": 0,
        "meta_classification_type": "U",
        "meta_norad_cat_id": 66581,
        "meta_element_set_no": 999,
        "meta_rev_at_epoch": 324,
        "meta_bstar": -0.01584,
        "meta_mean_motion_dot": -0.01881146,
        "meta_mean_motion_ddot": 0,
        "tle_line1": "1 66581U 25268AA  25338.16670139 -.01881146  00000+0 -15840-1 0  9992",
        "tle_line2": "2 66581  42.9989 171.7081 0001665 266.3515   5.6912 15.72306757  3245"
      },
      "geometry": {
        "type": "Point",
        "coordinates": [
          -97.3567809788982,
          42.947247545318305
        ]
      }
    }
  ]
}